STARLINK-30565          
1 58034U 23156G   26068.43852897  .00000501  00000+0  29032-4 0  9990
2 58034  53.1608  79.6446 0001253  83.6454 276.4690 15.30193119136278
YAOGAN-43 01D           
1 60461U 24148D   26068.43560480  .00010676  00000+0  37766-3 0  9999
2 60461  35.0010  61.7102 0002556 326.2473  33.8080 15.28369377 87008
